{"type":"FeatureCollection","name":"Departamentos de la provincia de Corrientes","source":"https://apis.datos.gob.ar/georef/api/v2.0/departamentos.geojson","sourceDescription":"API GeoRef Argentina; geometria basada en IGN; WGS84 (EPSG:4326)","features":[{"type":"Feature","properties":{"department":"Capital","officialName":"Capital","georefId":"18021","province":"Corrientes","source":"IGN"},"geometry":{"type":"Polygon","coordinates":[[[-58.694978,-27.382996],[-58.663376,-27.422672],[-58.678849,-27.471225],[-58.636375,-27.474614],[-58.626242,-27.505079],[-58.653421,-27.532244],[-58.668322,-27.612259],[-58.727235,-27.627213],[-58.777303,-27.660028],[-58.804003,-27.654654],[-58.816685,-27.674972],[-58.882746,-27.608523],[-58.871019,-27.571271],[-58.881402,-27.497892],[-58.781012,-27.381778],[-58.707917,-27.366175],[-58.694978,-27.382996]]]}},{"type":"Feature","properties":{"department":"Bella Vista","officialName":"Bella Vista","georefId":"18007","province":"Corrientes","source":"IGN"},"geometry":{"type":"Polygon","coordinates":[[[-59.008882,-28.182268],[-58.992298,-28.17289],[-58.984174,-28.19431],[-59.020349,-28.212171],[-59.015807,-28.255046],[-59.032555,-28.266871],[-58.951954,-28.303944],[-58.859562,-28.280508],[-58.851114,-28.257183],[-58.813704,-28.240982],[-58.758785,-28.336113],[-58.753723,-28.383898],[-58.707016,-28.403976],[-58.697174,-28.420004],[-58.713394,-28.44128],[-58.660099,-28.511686],[-58.73615,-28.58844],[-58.856542,-28.639122],[-58.932549,-28.728976],[-58.922001,-28.731039],[-58.927681,-28.746883],[-58.957725,-28.763367],[-58.952117,-28.773113],[-58.987244,-28.822922],[-59.041962,-28.811935],[-59.038349,-28.793287],[-59.118639,-28.778816],[-59.122349,-28.768835],[-59.142661,-28.774474],[-59.078601,-28.667487],[-59.105013,-28.633937],[-59.100722,-28.580087],[-59.048857,-28.493311],[-59.085977,-28.435966],[-59.076213,-28.365341],[-59.103458,-28.328816],[-59.109534,-28.229667],[-59.087678,-28.20177],[-59.061775,-28.192995],[-59.055916,-28.217566],[-59.040363,-28.222046],[-59.030342,-28.190832],[-59.0116,-28.187397],[-59.020271,-28.17321],[-59.008882,-28.182268]]]}},{"type":"Feature","properties":{"department":"Beron de Astrada","officialName":"Berón de Astrada","georefId":"18014","province":"Corrientes","source":"IGN"},"geometry":{"type":"MultiPolygon","coordinates":[[[[-57.662824,-27.352718],[-57.609788,-27.395708],[-57.543506,-27.432967],[-57.507518,-27.444201],[-57.439005,-27.438282],[-57.387708,-27.421561],[-57.40374,-27.515515],[-57.447628,-27.557881],[-57.456115,-27.584686],[-57.493358,-27.613522],[-57.510223,-27.610686],[-57.548527,-27.651056],[-57.576195,-27.649477],[-57.584122,-27.614563],[-57.570316,-27.605465],[-57.639781,-27.597485],[-57.636871,-27.573818],[-57.689507,-27.572962],[-57.684235,-27.49383],[-57.790596,-27.505714],[-57.836723,-27.482002],[-57.875954,-27.43956],[-57.82798,-27.401155],[-57.753258,-27.408175],[-57.742363,-27.355633],[-57.784592,-27.363637],[-57.793517,-27.341484],[-57.70535,-27.325562],[-57.662824,-27.352718]]],[[[-57.566611,-27.385118],[-57.502453,-27.403322],[-57.404192,-27.4166],[-57.4656,-27.431654],[-57.478021,-27.436616],[-57.484351,-27.435521],[-57.492187,-27.438701],[-57.593415,-27.392452],[-57.566611,-27.385118]]],[[[-57.448871,-27.432221],[-57.451574,-27.436582],[-57.472951,-27.438564],[-57.463196,-27.433926],[-57.448871,-27.432221]]],[[[-57.543052,-27.424431],[-57.539458,-27.427787],[-57.553169,-27.419738],[-57.551941,-27.419533],[-57.543052,-27.424431]]],[[[-57.444129,-27.429413],[-57.450031,-27.431948],[-57.454806,-27.430925],[-57.44205,-27.427514],[-57.444129,-27.429413]]],[[[-57.481254,-27.437477],[-57.479921,-27.438493],[-57.48784,-27.439153],[-57.484118,-27.436117],[-57.481254,-27.437477]]],[[[-57.541051,-27.429531],[-57.542869,-27.429697],[-57.548394,-27.426491],[-57.541232,-27.427582],[-57.541051,-27.429531]]],[[[-57.563128,-27.410461],[-57.557194,-27.414144],[-57.554601,-27.416941],[-57.56456,-27.410529],[-57.563128,-27.410461]]],[[[-57.610778,-27.383325],[-57.610586,-27.381637],[-57.60579,-27.381215],[-57.606365,-27.382251],[-57.610778,-27.383325]]],[[[-57.476975,-27.439656],[-57.47868,-27.439997],[-57.479294,-27.438837],[-57.475474,-27.438087],[-57.476975,-27.439656]]]]}},{"type":"Feature","properties":{"department":"Concepcion","officialName":"Concepción","georefId":"18028","province":"Corrientes","source":"IGN"},"geometry":{"type":"Polygon","coordinates":[[[-57.754021,-27.995058],[-57.627571,-28.136196],[-57.6716,-28.163282],[-57.604725,-28.252985],[-57.680553,-28.319607],[-57.629345,-28.369122],[-57.658833,-28.410524],[-57.639832,-28.423779],[-57.63842,-28.461384],[-57.690651,-28.501316],[-57.612274,-28.595654],[-57.939793,-28.703724],[-58.106304,-28.712961],[-58.11097,-28.700352],[-58.183716,-28.747057],[-58.221687,-28.746057],[-58.227455,-28.758599],[-58.281564,-28.769292],[-58.305588,-28.795643],[-58.307365,-28.832933],[-58.422886,-28.740574],[-58.476214,-28.780254],[-58.508568,-28.783726],[-58.528275,-28.769928],[-58.547333,-28.71928],[-58.490421,-28.646807],[-58.507153,-28.610226],[-58.499756,-28.590223],[-58.415382,-28.539846],[-58.311817,-28.451077],[-58.430818,-28.301777],[-58.306973,-28.205576],[-58.133297,-28.120834],[-58.007408,-28.027674],[-57.777597,-27.971318],[-57.754021,-27.995058]]]}},{"type":"Feature","properties":{"department":"Curuzu Cuatia","officialName":"Curuzú Cuatiá","georefId":"18035","province":"Corrientes","source":"IGN"},"geometry":{"type":"Polygon","coordinates":[[[-58.564236,-29.046046],[-58.533657,-29.065612],[-58.526661,-29.095627],[-58.53641,-29.094374],[-58.492069,-29.105501],[-58.441564,-29.17286],[-58.409194,-29.193235],[-58.390912,-29.188858],[-58.372089,-29.228919],[-58.282395,-29.275012],[-58.193204,-29.40306],[-58.15067,-29.439418],[-58.114979,-29.440615],[-58.056071,-29.480521],[-58.014564,-29.481106],[-57.952312,-29.535895],[-57.897861,-29.549323],[-57.903274,-29.558326],[-57.868237,-29.605377],[-57.871703,-29.631246],[-57.80455,-29.71036],[-57.756242,-29.714208],[-57.733898,-29.741983],[-57.693061,-29.713759],[-57.657494,-29.72672],[-57.646957,-29.717011],[-57.610302,-29.74971],[-57.69096,-29.770536],[-57.678173,-29.819057],[-57.64642,-29.827363],[-57.684074,-29.835026],[-57.672736,-29.858349],[-57.704052,-29.856209],[-57.687485,-29.898502],[-57.700939,-29.937775],[-57.678899,-29.940899],[-57.689107,-29.960479],[-57.665588,-29.984478],[-57.639626,-29.986542],[-57.687668,-30.02499],[-57.744267,-29.968199],[-57.787209,-29.966055],[-57.81554,-29.94068],[-57.842949,-29.93601],[-57.916595,-29.836919],[-57.998379,-29.82234],[-58.033852,-29.852448],[-58.070851,-29.859671],[-58.076622,-29.893145],[-58.054573,-29.896606],[-58.047234,-29.950212],[-57.992395,-29.978565],[-58.05893,-30.106823],[-58.047726,-30.14031],[-58.025533,-30.147331],[-58.022616,-30.173426],[-58.04198,-30.246588],[-58.032821,-30.258409],[-58.051772,-30.290536],[-58.037645,-30.307566],[-58.057749,-30.331221],[-58.047894,-30.350441],[-58.078029,-30.379907],[-58.072575,-30.425187],[-58.142282,-30.405238],[-58.19195,-30.335628],[-58.20692,-30.288616],[-58.262192,-30.255668],[-58.295901,-30.246],[-58.346454,-30.271261],[-58.404005,-30.249787],[-58.437047,-30.221675],[-58.451527,-30.224856],[-58.47016,-30.203043],[-58.496562,-30.207688],[-58.563668,-30.179188],[-58.577965,-30.160002],[-58.569504,-30.153547],[-58.539478,-30.15237],[-58.508636,-30.117249],[-58.472617,-30.122943],[-58.445077,-30.097382],[-58.468754,-29.989717],[-58.506865,-29.963995],[-58.531378,-29.928824],[-58.537539,-29.881085],[-58.591015,-29.833307],[-58.629061,-29.846207],[-58.694119,-29.834726],[-58.752873,-29.858159],[-58.701255,-29.780829],[-58.682918,-29.772116],[-58.716511,-29.727587],[-58.696831,-29.62921],[-58.718899,-29.641705],[-58.730675,-29.589212],[-58.773571,-29.568216],[-58.874287,-29.551758],[-58.859653,-29.478859],[-58.910065,-29.468283],[-58.886032,-29.41404],[-58.868679,-29.412346],[-58.87458,-29.389759],[-58.844955,-29.350393],[-58.863468,-29.345491],[-58.861164,-29.328787],[-58.835522,-29.32093],[-58.792229,-29.269186],[-58.802692,-29.261686],[-58.794159,-29.241999],[-58.76226,-29.217735],[-58.755013,-29.190477],[-58.730232,-29.178719],[-58.717846,-29.135275],[-58.687344,-29.118032],[-58.689949,-29.100496],[-58.673637,-29.103195],[-58.668304,-29.081888],[-58.647552,-29.079565],[-58.643041,-29.063411],[-58.618732,-29.067238],[-58.613066,-29.052765],[-58.564236,-29.046046]]]}},{"type":"Feature","properties":{"department":"Empedrado","officialName":"Empedrado","georefId":"18042","province":"Corrientes","source":"IGN"},"geometry":{"type":"Polygon","coordinates":[[[-58.629085,-27.612577],[-58.596397,-27.647038],[-58.601025,-27.718502],[-58.544106,-27.70446],[-58.547112,-27.721113],[-58.49754,-27.728188],[-58.500047,-27.758641],[-58.467472,-27.75647],[-58.46611,-27.780817],[-58.385864,-27.784874],[-58.396679,-27.858402],[-58.328262,-27.85288],[-58.329823,-27.864716],[-58.316555,-27.866201],[-58.325611,-27.900251],[-58.303917,-27.953382],[-58.403355,-27.99333],[-58.438828,-27.994385],[-58.465427,-27.97023],[-58.580823,-27.995351],[-58.630909,-28.022553],[-58.638569,-28.039007],[-58.6697,-28.045741],[-58.672941,-28.06489],[-58.685347,-28.061243],[-58.697204,-28.081895],[-58.738736,-28.083504],[-58.755869,-28.112479],[-58.788502,-28.127397],[-58.817584,-28.122003],[-58.835164,-28.166887],[-58.855801,-28.17503],[-58.868155,-28.16511],[-58.874566,-28.175848],[-58.976071,-28.19468],[-58.992298,-28.17289],[-59.008881,-28.182268],[-59.01712,-28.172134],[-59.0116,-28.187397],[-59.030342,-28.190832],[-59.044155,-28.22336],[-59.061775,-28.192995],[-59.087678,-28.20177],[-59.087635,-28.171772],[-59.062413,-28.128109],[-58.952965,-28.137106],[-58.859734,-28.050318],[-58.857739,-28.011612],[-58.829262,-27.961873],[-58.844006,-27.880447],[-58.809708,-27.783407],[-58.824415,-27.669394],[-58.811686,-27.675375],[-58.804003,-27.654654],[-58.777303,-27.660028],[-58.727235,-27.627213],[-58.687505,-27.624369],[-58.651027,-27.602898],[-58.629085,-27.612577]]]}},{"type":"Feature","properties":{"department":"Esquina","officialName":"Esquina","georefId":"18049","province":"Corrientes","source":"IGN"},"geometry":{"type":"Polygon","coordinates":[[[-58.863597,-29.498507],[-58.874287,-29.551758],[-58.773571,-29.568216],[-58.730675,-29.589212],[-58.717913,-29.644793],[-58.875225,-29.726542],[-58.878044,-29.738632],[-58.856789,-29.74214],[-58.862316,-29.760159],[-58.911861,-29.809671],[-58.954357,-29.81567],[-58.958199,-29.834415],[-59.025436,-29.851475],[-59.073513,-30.099573],[-59.069408,-30.128563],[-59.052423,-30.135588],[-59.069125,-30.165084],[-59.126222,-30.1824],[-59.109857,-30.279624],[-59.136577,-30.286569],[-59.143579,-30.317126],[-59.171678,-30.318092],[-59.241691,-30.365739],[-59.273512,-30.352434],[-59.288267,-30.361884],[-59.298305,-30.346789],[-59.323732,-30.354244],[-59.348586,-30.324131],[-59.419647,-30.315736],[-59.44097,-30.329455],[-59.464028,-30.324323],[-59.464823,-30.33703],[-59.490212,-30.344331],[-59.557735,-30.33265],[-59.556837,-30.352302],[-59.565845,-30.347612],[-59.574664,-30.370974],[-59.57244,-30.408418],[-59.587769,-30.434822],[-59.609614,-30.425138],[-59.632171,-30.390643],[-59.63341,-30.362795],[-59.693453,-30.313123],[-59.710824,-30.270292],[-59.636584,-30.237456],[-59.612076,-30.10254],[-59.56948,-30.01901],[-59.552069,-30.008554],[-59.545568,-30.016549],[-59.512583,-29.976679],[-59.487054,-29.86691],[-59.41087,-29.812675],[-59.382051,-29.824443],[-59.353098,-29.800037],[-59.333105,-29.816601],[-59.307452,-29.800356],[-59.314137,-29.785807],[-59.261703,-29.78327],[-59.249344,-29.766302],[-59.169601,-29.732721],[-59.171238,-29.718325],[-59.135134,-29.707214],[-59.144344,-29.68503],[-59.080956,-29.656965],[-59.08839,-29.64691],[-59.074787,-29.6394],[-59.056438,-29.580484],[-58.960247,-29.5327],[-58.925434,-29.473711],[-58.859653,-29.478859],[-58.863597,-29.498507]]]}},{"type":"Feature","properties":{"department":"General Alvear","officialName":"General Alvear","georefId":"18056","province":"Corrientes","source":"IGN"},"geometry":{"type":"Polygon","coordinates":[[[-56.489429,-28.428602],[-56.43005,-28.440952],[-56.369259,-28.522245],[-56.375935,-28.589375],[-56.365456,-28.619799],[-56.450665,-28.693317],[-56.415451,-28.700937],[-56.412693,-28.746025],[-56.381294,-28.764011],[-56.339039,-28.782621],[-56.290053,-28.779144],[-56.30629,-28.79283],[-56.297827,-28.88939],[-56.332411,-28.931343],[-56.386554,-28.952725],[-56.409915,-28.977648],[-56.415482,-29.000697],[-56.398771,-29.025807],[-56.419525,-29.078981],[-56.578546,-29.116609],[-56.609421,-29.098969],[-56.580742,-29.067513],[-56.583488,-29.054876],[-56.610313,-29.045565],[-56.609379,-29.006401],[-56.638847,-29.004791],[-56.648918,-28.98345],[-56.639896,-28.968481],[-56.663511,-28.965767],[-56.654213,-28.940386],[-56.67205,-28.907932],[-56.662276,-28.895773],[-56.684616,-28.876825],[-56.682425,-28.840911],[-56.691551,-28.845263],[-56.704205,-28.821909],[-56.691157,-28.798643],[-56.703023,-28.775324],[-56.685624,-28.772099],[-56.686669,-28.753172],[-56.707554,-28.742702],[-56.671828,-28.690984],[-56.653808,-28.694075],[-56.639979,-28.665068],[-56.674931,-28.635485],[-56.658001,-28.604954],[-56.669819,-28.58424],[-56.652489,-28.567757],[-56.658547,-28.557956],[-56.624283,-28.537325],[-56.612787,-28.542972],[-56.592945,-28.537596],[-56.596931,-28.492958],[-56.542102,-28.430982],[-56.489429,-28.428602]]]}},{"type":"Feature","properties":{"department":"General Paz","officialName":"General Paz","georefId":"18063","province":"Corrientes","source":"IGN"},"geometry":{"type":"MultiPolygon","coordinates":[[[[-57.309742,-27.420859],[-57.2321,-27.468042],[-57.254562,-27.473549],[-57.225275,-27.497106],[-57.228453,-27.511857],[-57.303886,-27.550707],[-57.422867,-27.653563],[-57.498581,-27.691605],[-57.593285,-27.766373],[-57.732334,-27.938063],[-57.804302,-27.984934],[-57.919472,-28.009323],[-57.93824,-27.941122],[-57.989674,-27.964087],[-57.994427,-27.945208],[-58.023941,-27.953491],[-58.035408,-27.903373],[-58.081482,-27.905464],[-58.089752,-27.871513],[-58.030186,-27.823702],[-58.104816,-27.811577],[-58.226856,-27.841124],[-58.304054,-27.795339],[-58.145527,-27.697081],[-57.954086,-27.625614],[-57.929155,-27.579721],[-57.892536,-27.563374],[-57.831104,-27.485617],[-57.776161,-27.509283],[-57.686867,-27.492233],[-57.677635,-27.502224],[-57.689507,-27.572962],[-57.636871,-27.573818],[-57.639781,-27.597485],[-57.570316,-27.605465],[-57.584122,-27.614563],[-57.576195,-27.649477],[-57.548527,-27.651056],[-57.510223,-27.610686],[-57.493358,-27.613522],[-57.456115,-27.584686],[-57.447628,-27.557881],[-57.40374,-27.515515],[-57.387708,-27.421561],[-57.332864,-27.409433],[-57.309742,-27.420859]]],[[[-57.221511,-27.464203],[-57.232337,-27.463443],[-57.239298,-27.456655],[-57.232975,-27.457467],[-57.221511,-27.464203]]]]}},{"type":"Feature","properties":{"department":"Goya","officialName":"Goya","georefId":"18070","province":"Corrientes","source":"IGN"},"geometry":{"type":"Polygon","coordinates":[[[-59.14426,-29.050332],[-59.137573,-29.078987],[-59.117992,-29.066231],[-59.116871,-29.081549],[-59.026535,-29.089983],[-59.018932,-29.064993],[-58.94453,-29.080072],[-58.942623,-29.071383],[-58.787984,-29.112331],[-58.830615,-29.174064],[-58.846552,-29.173899],[-58.869143,-29.222404],[-58.858362,-29.255128],[-58.813267,-29.238363],[-58.792229,-29.269186],[-58.835522,-29.32093],[-58.861164,-29.328787],[-58.863468,-29.345491],[-58.844421,-29.348475],[-58.87458,-29.389759],[-58.868679,-29.412346],[-58.886032,-29.41404],[-58.957909,-29.530602],[-59.056438,-29.580484],[-59.074787,-29.6394],[-59.08839,-29.64691],[-59.080956,-29.656965],[-59.144344,-29.68503],[-59.135134,-29.707214],[-59.171238,-29.718325],[-59.169601,-29.732721],[-59.249344,-29.766302],[-59.261703,-29.78327],[-59.312401,-29.784971],[-59.307452,-29.800356],[-59.333105,-29.816601],[-59.353098,-29.800037],[-59.382051,-29.824443],[-59.409062,-29.811951],[-59.474087,-29.851862],[-59.513369,-29.978132],[-59.545568,-30.016549],[-59.552069,-30.008554],[-59.56948,-30.01901],[-59.6047,-29.902666],[-59.659665,-29.843179],[-59.617549,-29.77584],[-59.613979,-29.668765],[-59.590185,-29.569779],[-59.579953,-29.459848],[-59.604283,-29.394743],[-59.519788,-29.343189],[-59.500633,-29.243518],[-59.402065,-29.216896],[-59.346766,-29.11435],[-59.275303,-29.099567],[-59.234397,-29.071425],[-59.211868,-29.078672],[-59.211496,-29.094438],[-59.194763,-29.0912],[-59.183426,-29.059797],[-59.16404,-29.066113],[-59.14426,-29.050332]]]}},{"type":"Feature","properties":{"department":"Itati","officialName":"Itatí","georefId":"18077","province":"Corrientes","source":"IGN"},"geometry":{"type":"MultiPolygon","coordinates":[[[[-57.970989,-27.274986],[-57.932307,-27.264108],[-57.891338,-27.267717],[-57.862416,-27.278595],[-57.824089,-27.330493],[-57.793517,-27.341484],[-57.788236,-27.362584],[-57.742363,-27.355633],[-57.753258,-27.408175],[-57.82798,-27.401155],[-57.875954,-27.43956],[-57.980827,-27.402863],[-58.118355,-27.402462],[-58.22031,-27.443373],[-58.33744,-27.413374],[-58.324932,-27.359968],[-58.303726,-27.36228],[-58.360749,-27.28336],[-58.246744,-27.261516],[-58.191339,-27.280832],[-58.026496,-27.259025],[-57.970989,-27.274986]],[[-57.903349,-27.27382],[-57.910579,-27.274395],[-57.912872,-27.276645],[-57.89824,-27.277518],[-57.862389,-27.294362],[-57.903349,-27.27382]],[[-57.906716,-27.290551],[-57.895896,-27.288114],[-57.894726,-27.280316],[-57.918386,-27.282459],[-57.906716,-27.290551]],[[-57.952914,-27.276011],[-57.939427,-27.277289],[-57.944874,-27.286171],[-57.923928,-27.275242],[-57.952914,-27.276011]],[[-57.942278,-27.268918],[-57.926743,-27.268808],[-57.921479,-27.266981],[-57.930069,-27.265336],[-57.942278,-27.268918]],[[-57.921877,-27.272629],[-57.917728,-27.276162],[-57.913537,-27.273902],[-57.917933,-27.274272],[-57.921877,-27.272629]]],[[[-57.82595,-27.302602],[-57.775227,-27.314999],[-57.768948,-27.321109],[-57.819451,-27.318697],[-57.82595,-27.302602]]],[[[-57.752547,-27.320163],[-57.74152,-27.323307],[-57.75212,-27.327925],[-57.782765,-27.32782],[-57.798088,-27.325021],[-57.794081,-27.32573],[-57.791364,-27.324007],[-57.787068,-27.325632],[-57.752547,-27.320163]]],[[[-58.223046,-27.256236],[-58.215346,-27.258624],[-58.204121,-27.25965],[-58.1967,-27.259137],[-58.190818,-27.262456],[-58.187877,-27.263104],[-58.184773,-27.263319],[-58.183694,-27.262942],[-58.183093,-27.261355],[-58.170484,-27.269217],[-58.211347,-27.263184],[-58.223046,-27.256236]]],[[[-58.303643,-27.262458],[-58.31784,-27.2725],[-58.335558,-27.273423],[-58.321649,-27.262574],[-58.303643,-27.262458]]],[[[-58.150203,-27.257994],[-58.138566,-27.265546],[-58.178002,-27.259267],[-58.156434,-27.255864],[-58.150203,-27.257994]]],[[[-58.224674,-27.2549],[-58.189397,-27.257697],[-58.183839,-27.261834],[-58.196808,-27.258867],[-58.214726,-27.258435],[-58.224674,-27.2549]]],[[[-57.82147,-27.31831],[-57.837282,-27.307302],[-57.838822,-27.297833],[-57.827021,-27.309075],[-57.82147,-27.31831]]],[[[-58.291622,-27.266431],[-58.301328,-27.271593],[-58.312138,-27.27169],[-58.300387,-27.265814],[-58.291622,-27.266431]]],[[[-57.814601,-27.320683],[-57.787826,-27.320612],[-57.78413,-27.322537],[-57.786963,-27.325336],[-57.790252,-27.323727],[-57.792176,-27.324077],[-57.79459,-27.325266],[-57.818483,-27.320124],[-57.814601,-27.320683]]],[[[-58.332672,-27.266267],[-58.337693,-27.27377],[-58.345599,-27.274808],[-58.341444,-27.269441],[-58.332672,-27.266267]]],[[[-58.232783,-27.259818],[-58.223997,-27.262112],[-58.244081,-27.253966],[-58.235813,-27.258693],[-58.232783,-27.259818]]],[[[-58.085893,-27.262054],[-58.093676,-27.266257],[-58.100041,-27.266305],[-58.090524,-27.259874],[-58.085893,-27.262054]]],[[[-57.817783,-27.324951],[-57.806309,-27.325546],[-57.802601,-27.327855],[-57.820477,-27.324566],[-57.817783,-27.324951]]],[[[-57.784024,-27.330417],[-57.772207,-27.329422],[-57.769098,-27.330169],[-57.779173,-27.333154],[-57.784833,-27.332221],[-57.786823,-27.328552],[-57.784024,-27.330417]]],[[[-58.197323,-27.269238],[-58.187682,-27.269887],[-58.184533,-27.272516],[-58.200732,-27.268945],[-58.197323,-27.269238]]],[[[-58.329729,-27.263728],[-58.335154,-27.264016],[-58.324073,-27.261362],[-58.324996,-27.262054],[-58.329729,-27.263728]]],[[[-58.293429,-27.256285],[-58.288235,-27.25622],[-58.286417,-27.256577],[-58.291384,-27.260115],[-58.299532,-27.255636],[-58.293429,-27.256285]]],[[[-58.165502,-27.274159],[-58.168732,-27.274042],[-58.169783,-27.2698],[-58.164996,-27.271396],[-58.165502,-27.274159]]],[[[-58.357731,-27.27492],[-58.36128,-27.274703],[-58.349075,-27.271803],[-58.351109,-27.274011],[-58.357731,-27.27492]]],[[[-58.192097,-27.27771],[-58.19411,-27.279431],[-58.19979,-27.277061],[-58.197778,-27.275957],[-58.192097,-27.27771]]],[[[-58.262908,-27.259689],[-58.263817,-27.261247],[-58.267713,-27.26129],[-58.265635,-27.259689],[-58.262908,-27.259689]]]]}},{"type":"Feature","properties":{"department":"Ituzaingo","officialName":"Ituzaingó","georefId":"18084","province":"Corrientes","source":"IGN"},"geometry":{"type":"MultiPolygon","coordinates":[[[[-56.032419,-27.316387],[-56.024622,-27.338424],[-56.039906,-27.349216],[-56.028888,-27.382855],[-56.043216,-27.404992],[-56.036937,-27.415187],[-56.055421,-27.420687],[-56.054503,-27.451213],[-56.026635,-27.507277],[-55.9789,-27.5402],[-55.825537,-27.791656],[-55.846303,-27.832436],[-55.827123,-27.854597],[-55.835985,-27.889767],[-55.813082,-27.931874],[-55.885536,-28.020716],[-55.874653,-27.958235],[-55.914955,-27.89839],[-55.946418,-27.915344],[-55.984667,-27.906595],[-56.047343,-27.845423],[-56.106903,-27.827856],[-56.131672,-27.833906],[-56.152083,-27.798644],[-56.217606,-27.783627],[-56.22932,-27.769571],[-56.244991,-27.798443],[-56.239689,-27.81897],[-56.266381,-27.82871],[-56.260809,-27.862351],[-56.284937,-27.886562],[-56.321867,-27.878542],[-56.313536,-27.894368],[-56.334953,-27.91063],[-56.341355,-27.935389],[-56.425632,-27.880533],[-56.467884,-27.939465],[-56.622433,-27.849346],[-56.663376,-27.952679],[-56.779537,-28.080662],[-56.87529,-28.229994],[-57.302959,-28.564119],[-57.366116,-28.579321],[-57.612274,-28.595654],[-57.690651,-28.501316],[-57.639824,-28.464796],[-57.644291,-28.419729],[-57.628418,-28.398983],[-57.517944,-28.345589],[-57.442059,-28.269846],[-57.398335,-28.1483],[-57.412785,-28.069336],[-57.354622,-27.934608],[-57.254055,-27.866467],[-57.194695,-27.807371],[-57.179237,-27.754137],[-57.116707,-27.706238],[-57.096832,-27.665062],[-56.945395,-27.573406],[-56.952723,-27.535117],[-56.931914,-27.5666],[-56.853279,-27.605231],[-56.794062,-27.586856],[-56.737386,-27.603732],[-56.685997,-27.576944],[-56.677355,-27.560018],[-56.717054,-27.496937],[-56.718782,-27.464558],[-56.691029,-27.454341],[-56.649602,-27.460797],[-56.60355,-27.431417],[-56.556735,-27.456781],[-56.487046,-27.563677],[-56.42438,-27.602915],[-56.388842,-27.606019],[-56.356158,-27.58589],[-56.338367,-27.52403],[-56.293688,-27.494141],[-56.284131,-27.45978],[-56.294958,-27.422979],[-56.284233,-27.408492],[-56.237571,-27.402393],[-56.151922,-27.328739],[-56.075218,-27.307035],[-56.032419,-27.316387]]],[[[-56.914826,-27.42354],[-56.871761,-27.430442],[-56.764027,-27.502565],[-56.7294,-27.501961],[-56.737973,-27.550577],[-56.840421,-27.596181],[-56.87158,-27.58346],[-56.887897,-27.554936],[-56.903059,-27.537397],[-56.912073,-27.531478],[-56.93278,-27.526781],[-56.943637,-27.517852],[-56.952438,-27.514768],[-56.970105,-27.492732],[-57.032066,-27.480648],[-56.914826,-27.42354]]],[[[-56.705257,-27.563307],[-56.734235,-27.591428],[-56.783897,-27.582692],[-56.761369,-27.577493],[-56.756046,-27.57477],[-56.741997,-27.563506],[-56.740087,-27.563489],[-56.734045,-27.558731],[-56.716932,-27.519936],[-56.699665,-27.536523],[-56.705765,-27.557421],[-56.705257,-27.563307]]],[[[-56.956935,-27.516053],[-56.946156,-27.525062],[-56.925911,-27.535369],[-56.910732,-27.539054],[-56.894129,-27.551716],[-56.875988,-27.583573],[-56.900854,-27.569427],[-56.91961,-27.562565],[-56.932373,-27.535113],[-56.951989,-27.523312],[-56.956935,-27.516053]]],[[[-56.699595,-27.578159],[-56.706684,-27.580773],[-56.693316,-27.545063],[-56.686068,-27.560886],[-56.699595,-27.578159]]],[[[-56.35707,-27.517885],[-56.36473,-27.533633],[-56.3712,-27.538533],[-56.367441,-27.520406],[-56.35707,-27.517885]]],[[[-56.944729,-27.53584],[-56.930999,-27.548674],[-56.930017,-27.557105],[-56.941517,-27.546119],[-56.944729,-27.53584]]],[[[-56.928489,-27.530362],[-56.911989,-27.5329],[-56.907881,-27.538645],[-56.9246,-27.534686],[-56.928489,-27.530362]]],[[[-56.921087,-27.563079],[-56.902184,-27.57029],[-56.899074,-27.573137],[-56.9128,-27.570917],[-56.921087,-27.563079]]],[[[-56.938793,-27.524839],[-56.947813,-27.522284],[-56.954815,-27.514896],[-56.94276,-27.520435],[-56.938793,-27.524839]]],[[[-56.329329,-27.501225],[-56.343201,-27.508499],[-56.3443,-27.507991],[-56.320702,-27.495473],[-56.329329,-27.501225]]],[[[-56.77472,-27.576272],[-56.772225,-27.572203],[-56.75618,-27.569443],[-56.75872,-27.571362],[-56.764043,-27.572065],[-56.77472,-27.576272]]],[[[-56.754009,-27.57028],[-56.760082,-27.575118],[-56.772225,-27.576443],[-56.767165,-27.573407],[-56.754009,-27.57028]]],[[[-56.71627,-27.579284],[-56.718509,-27.585508],[-56.732994,-27.592678],[-56.722726,-27.58574],[-56.71627,-27.579284]]],[[[-56.731839,-27.532994],[-56.731179,-27.527566],[-56.726104,-27.519706],[-56.725842,-27.525369],[-56.731839,-27.532994]]],[[[-56.759079,-27.591047],[-56.753385,-27.592099],[-56.749424,-27.593461],[-56.749115,-27.593956],[-56.759079,-27.591047]]],[[[-56.939771,-27.535489],[-56.937078,-27.537876],[-56.933892,-27.544083],[-56.946785,-27.532692],[-56.939771,-27.535489]]],[[[-56.701363,-27.55255],[-56.70123,-27.55839],[-56.703737,-27.563565],[-56.705029,-27.558398],[-56.701363,-27.55255]]],[[[-56.730764,-27.542449],[-56.731921,-27.536602],[-56.729446,-27.533384],[-56.727606,-27.537425],[-56.730764,-27.542449]]],[[[-56.874278,-27.582497],[-56.863582,-27.58762],[-56.862235,-27.588762],[-56.871965,-27.586544],[-56.874278,-27.582497]]],[[[-56.861615,-27.592128],[-56.855197,-27.592904],[-56.855711,-27.594831],[-56.866247,-27.591876],[-56.861615,-27.592128]]],[[[-56.781625,-27.572992],[-56.788961,-27.576244],[-56.789467,-27.575666],[-56.784516,-27.571655],[-56.781625,-27.572992]]],[[[-56.710336,-27.58133],[-56.711821,-27.581949],[-56.706684,-27.575079],[-56.706065,-27.57774],[-56.710336,-27.58133]]],[[[-56.903637,-27.541573],[-56.905886,-27.540545],[-56.907363,-27.535663],[-56.903509,-27.537847],[-56.903637,-27.541573]]],[[[-56.765927,-27.569867],[-56.768081,-27.569071],[-56.761047,-27.567587],[-56.762446,-27.568803],[-56.765927,-27.569867]]],[[[-56.945215,-27.530746],[-56.93928,-27.532507],[-56.937885,-27.534432],[-56.945622,-27.531965],[-56.945215,-27.530746]]],[[[-56.739175,-27.562097],[-56.741974,-27.561672],[-56.736843,-27.558564],[-56.736126,-27.560066],[-56.739175,-27.562097]]],[[[-56.689817,-27.569795],[-56.690297,-27.572176],[-56.693674,-27.574418],[-56.690861,-27.570039],[-56.689817,-27.569795]]],[[[-56.93127,-27.527496],[-56.928909,-27.527833],[-56.927512,-27.528749],[-56.934065,-27.527544],[-56.93127,-27.527496]]]]}},{"type":"Feature","properties":{"department":"Lavalle","officialName":"Lavalle","georefId":"18091","province":"Corrientes","source":"IGN"},"geometry":{"type":"Polygon","coordinates":[[[-59.120149,-28.773143],[-59.038349,-28.793287],[-59.041962,-28.811935],[-58.896347,-28.841202],[-58.70874,-28.951208],[-58.60009,-29.049177],[-58.618732,-29.067238],[-58.645313,-29.064672],[-58.673637,-29.103195],[-58.689049,-29.09952],[-58.687344,-29.118032],[-58.717846,-29.135275],[-58.730232,-29.178719],[-58.763031,-29.199879],[-58.76226,-29.217735],[-58.786469,-29.230976],[-58.797527,-29.257639],[-58.813267,-29.238363],[-58.858362,-29.255128],[-58.869143,-29.222404],[-58.846552,-29.173899],[-58.830615,-29.174064],[-58.787984,-29.112331],[-58.942623,-29.071383],[-58.94453,-29.080072],[-59.018932,-29.064993],[-59.026535,-29.089983],[-59.116871,-29.081549],[-59.117992,-29.066231],[-59.137573,-29.078987],[-59.14426,-29.050332],[-59.16404,-29.066113],[-59.183426,-29.059797],[-59.192944,-29.090211],[-59.211496,-29.094438],[-59.211868,-29.078672],[-59.234397,-29.071425],[-59.199715,-29.031545],[-59.209471,-28.968965],[-59.158075,-28.877356],[-59.160454,-28.794789],[-59.142612,-28.77443],[-59.120149,-28.773143]]]}},{"type":"Feature","properties":{"department":"Mburucuya","officialName":"Mburucuyá","georefId":"18098","province":"Corrientes","source":"IGN"},"geometry":{"type":"Polygon","coordinates":[[[-58.091198,-27.815393],[-58.0243,-27.826029],[-58.089752,-27.871513],[-58.081482,-27.905464],[-58.035408,-27.903373],[-58.023941,-27.953491],[-57.994427,-27.945208],[-57.989674,-27.964087],[-57.93824,-27.941122],[-57.919472,-28.009323],[-58.015419,-28.031778],[-58.133297,-28.120834],[-58.316254,-28.2134],[-58.368477,-28.143345],[-58.334587,-28.118395],[-58.438828,-27.994385],[-58.390102,-27.990974],[-58.363613,-27.971148],[-58.267742,-27.945772],[-58.194675,-27.901176],[-58.163782,-27.9016],[-58.147911,-27.857052],[-58.16853,-27.829624],[-58.091198,-27.815393]]]}},{"type":"Feature","properties":{"department":"Mercedes","officialName":"Mercedes","georefId":"18105","province":"Corrientes","source":"IGN"},"geometry":{"type":"Polygon","coordinates":[[[-57.215617,-28.499369],[-57.169756,-28.572323],[-57.179896,-28.584839],[-57.164395,-28.631326],[-57.175599,-28.8183],[-57.271001,-28.957141],[-57.351365,-29.027643],[-57.430329,-29.06815],[-57.45814,-29.120584],[-57.481751,-29.132627],[-57.481615,-29.146499],[-57.502239,-29.149224],[-57.509201,-29.17607],[-57.546752,-29.2126],[-57.538678,-29.259416],[-57.58223,-29.322236],[-57.578899,-29.334051],[-57.565639,-29.330603],[-57.569105,-29.34736],[-57.528889,-29.373291],[-57.541779,-29.398495],[-57.521506,-29.403967],[-57.534123,-29.411987],[-57.536165,-29.439936],[-57.503208,-29.449249],[-57.521904,-29.465908],[-57.520792,-29.504361],[-57.506172,-29.516731],[-57.515366,-29.525101],[-57.507992,-29.565937],[-57.541785,-29.593441],[-57.535469,-29.61214],[-57.549287,-29.622458],[-57.543873,-29.646897],[-57.558211,-29.673711],[-57.59951,-29.675114],[-57.587873,-29.689348],[-57.606748,-29.70551],[-57.601037,-29.723398],[-57.613289,-29.744605],[-57.646957,-29.717011],[-57.657494,-29.72672],[-57.693061,-29.713759],[-57.733898,-29.741983],[-57.756242,-29.714208],[-57.80455,-29.71036],[-57.871703,-29.631246],[-57.868237,-29.605377],[-57.903274,-29.558326],[-57.897861,-29.549323],[-57.952312,-29.535895],[-58.014564,-29.481106],[-58.056071,-29.480521],[-58.114979,-29.440615],[-58.150271,-29.439706],[-58.193204,-29.40306],[-58.249111,-29.315235],[-58.307998,-29.252348],[-58.352057,-29.241152],[-58.372089,-29.228919],[-58.390912,-29.188858],[-58.409194,-29.193235],[-58.441564,-29.17286],[-58.492069,-29.105501],[-58.53641,-29.094374],[-58.526661,-29.095627],[-58.533657,-29.065612],[-58.559427,-29.058676],[-58.55944,-29.046624],[-58.600781,-29.050468],[-58.582127,-29.022694],[-58.571682,-29.026613],[-58.560707,-28.985104],[-58.533955,-28.988816],[-58.532986,-28.965242],[-58.497762,-28.939195],[-58.502206,-28.924342],[-58.478992,-28.931416],[-58.462128,-28.916214],[-58.451664,-28.93054],[-58.434635,-28.921638],[-58.420856,-28.931234],[-58.381016,-28.916334],[-58.377728,-28.892904],[-58.340234,-28.882304],[-58.337837,-28.859594],[-58.304347,-28.837901],[-58.305588,-28.795643],[-58.281564,-28.769292],[-58.227455,-28.758599],[-58.221687,-28.746057],[-58.183716,-28.747057],[-58.11097,-28.700352],[-58.106304,-28.712961],[-57.939793,-28.703724],[-57.612274,-28.595654],[-57.329388,-28.573658],[-57.215617,-28.499369]]]}},{"type":"Feature","properties":{"department":"Monte Caseros","officialName":"Monte Caseros","georefId":"18112","province":"Corrientes","source":"IGN"},"geometry":{"type":"Polygon","coordinates":[[[-57.975395,-29.821497],[-57.915768,-29.837383],[-57.842949,-29.93601],[-57.81554,-29.94068],[-57.787209,-29.966055],[-57.744267,-29.968199],[-57.693218,-30.024988],[-57.67048,-30.005995],[-57.609131,-30.020803],[-57.576118,-30.008155],[-57.561764,-30.022573],[-57.566921,-30.042349],[-57.588959,-30.042639],[-57.601311,-30.059732],[-57.560776,-30.075819],[-57.611015,-30.087322],[-57.62328,-30.105427],[-57.614418,-30.163521],[-57.655602,-30.153706],[-57.628218,-30.174459],[-57.653552,-30.196275],[-57.61524,-30.254466],[-57.64292,-30.341905],[-57.889609,-30.510684],[-57.887304,-30.587569],[-57.846552,-30.620536],[-57.843369,-30.65955],[-57.808973,-30.695269],[-57.809509,-30.730192],[-57.843748,-30.721658],[-57.854835,-30.69465],[-57.894779,-30.669411],[-57.97485,-30.64734],[-57.980233,-30.629397],[-58.033321,-30.597927],[-58.037025,-30.5679],[-58.069126,-30.544908],[-58.057897,-30.493714],[-58.073797,-30.481774],[-58.079519,-30.455125],[-58.068476,-30.435529],[-58.082231,-30.401591],[-58.068368,-30.361103],[-58.047894,-30.350441],[-58.057749,-30.331221],[-58.037645,-30.307566],[-58.051772,-30.290536],[-58.032821,-30.258409],[-58.04198,-30.246588],[-58.022616,-30.173426],[-58.025533,-30.147331],[-58.047726,-30.14031],[-58.05893,-30.106823],[-57.992395,-29.978565],[-58.047234,-29.950212],[-58.054573,-29.896606],[-58.076622,-29.893145],[-58.074718,-29.876733],[-58.070851,-29.859671],[-57.975395,-29.821497]]]}},{"type":"Feature","properties":{"department":"Paso de los Libres","officialName":"Paso de los Libres","georefId":"18119","province":"Corrientes","source":"IGN"},"geometry":{"type":"Polygon","coordinates":[[[-57.508417,-29.17769],[-57.476669,-29.182554],[-57.427742,-29.227316],[-57.286385,-29.246315],[-57.134476,-29.244938],[-57.100868,-29.257418],[-56.949764,-29.20105],[-56.866684,-29.201643],[-56.861092,-29.301857],[-56.848579,-29.323858],[-56.863749,-29.393848],[-56.852661,-29.425674],[-56.868183,-29.44169],[-56.86916,-29.470119],[-56.838651,-29.498216],[-56.899923,-29.533387],[-56.969577,-29.605023],[-56.968237,-29.639106],[-57.00587,-29.656121],[-57.030182,-29.691759],[-57.11022,-29.756998],[-57.169896,-29.781164],[-57.229949,-29.779164],[-57.289465,-29.825349],[-57.327833,-29.883264],[-57.326044,-29.965013],[-57.342929,-29.999996],[-57.408541,-30.032024],[-57.474243,-30.119768],[-57.54904,-30.166021],[-57.599893,-30.17921],[-57.628218,-30.174459],[-57.655602,-30.153706],[-57.614418,-30.163521],[-57.62328,-30.105427],[-57.611015,-30.087322],[-57.560776,-30.075819],[-57.601311,-30.059732],[-57.588959,-30.042639],[-57.566921,-30.042349],[-57.562229,-30.020655],[-57.577888,-30.007904],[-57.609131,-30.020803],[-57.657009,-30.012568],[-57.662463,-30.002856],[-57.639626,-29.986542],[-57.665588,-29.984478],[-57.689107,-29.960479],[-57.678899,-29.940899],[-57.700939,-29.937775],[-57.687485,-29.898502],[-57.704052,-29.856209],[-57.672736,-29.858349],[-57.684074,-29.835026],[-57.64642,-29.827363],[-57.678173,-29.819057],[-57.690325,-29.769114],[-57.609928,-29.751341],[-57.620585,-29.742617],[-57.587873,-29.689348],[-57.59951,-29.675114],[-57.558211,-29.673711],[-57.543873,-29.646897],[-57.549287,-29.622458],[-57.535469,-29.61214],[-57.541785,-29.593441],[-57.507992,-29.565937],[-57.515366,-29.525101],[-57.506172,-29.516731],[-57.520792,-29.504361],[-57.521904,-29.465908],[-57.503208,-29.449249],[-57.536165,-29.439936],[-57.534123,-29.411987],[-57.521506,-29.403967],[-57.541779,-29.398495],[-57.528889,-29.373291],[-57.569105,-29.34736],[-57.565639,-29.330603],[-57.578899,-29.334051],[-57.582232,-29.321776],[-57.538678,-29.259416],[-57.546752,-29.2126],[-57.508417,-29.17769]]]}},{"type":"Feature","properties":{"department":"Saladas","officialName":"Saladas","georefId":"18126","province":"Corrientes","source":"IGN"},"geometry":{"type":"Polygon","coordinates":[[[-58.457966,-27.976162],[-58.334587,-28.118395],[-58.368477,-28.143345],[-58.316254,-28.2134],[-58.448031,-28.312782],[-58.460434,-28.336666],[-58.490482,-28.338943],[-58.51049,-28.36388],[-58.545208,-28.376575],[-58.600182,-28.45735],[-58.653103,-28.508533],[-58.713394,-28.44128],[-58.697174,-28.420004],[-58.707016,-28.403976],[-58.753723,-28.383898],[-58.758785,-28.336113],[-58.813704,-28.240982],[-58.851114,-28.257183],[-58.859562,-28.280508],[-58.951954,-28.303944],[-59.032555,-28.266871],[-59.01624,-28.25641],[-59.021355,-28.214145],[-59.011292,-28.206596],[-58.955119,-28.183597],[-58.943662,-28.192659],[-58.921345,-28.176809],[-58.835593,-28.16726],[-58.817584,-28.122003],[-58.788502,-28.127397],[-58.755869,-28.112479],[-58.738736,-28.083504],[-58.697204,-28.081895],[-58.685347,-28.061243],[-58.672941,-28.06489],[-58.6697,-28.045741],[-58.638569,-28.039007],[-58.592981,-28.001386],[-58.514908,-27.977043],[-58.457966,-27.976162]]]}},{"type":"Feature","properties":{"department":"San Cosme","officialName":"San Cosme","georefId":"18133","province":"Corrientes","source":"IGN"},"geometry":{"type":"MultiPolygon","coordinates":[[[[-58.419658,-27.289453],[-58.362566,-27.284342],[-58.303726,-27.36228],[-58.324932,-27.359968],[-58.33744,-27.413374],[-58.355465,-27.397865],[-58.413815,-27.408903],[-58.451338,-27.400029],[-58.455436,-27.416787],[-58.491065,-27.4299],[-58.480818,-27.449669],[-58.488645,-27.474461],[-58.51916,-27.491089],[-58.548492,-27.487389],[-58.589853,-27.518815],[-58.626983,-27.513163],[-58.636375,-27.474614],[-58.678849,-27.471225],[-58.663376,-27.422672],[-58.707917,-27.366175],[-58.668787,-27.359092],[-58.616488,-27.318632],[-58.515722,-27.291032],[-58.497016,-27.27136],[-58.419658,-27.289453]]],[[[-58.423271,-27.270154],[-58.420368,-27.279649],[-58.422009,-27.280627],[-58.431126,-27.268229],[-58.423271,-27.270154]]],[[[-58.611951,-27.316852],[-58.613093,-27.313283],[-58.607097,-27.312854],[-58.609024,-27.316138],[-58.611951,-27.316852]]],[[[-58.420597,-27.280978],[-58.413948,-27.281097],[-58.41312,-27.281593],[-58.418207,-27.283202],[-58.420597,-27.280978]]],[[[-58.437706,-27.267721],[-58.436534,-27.270747],[-58.441708,-27.267037],[-58.441058,-27.265638],[-58.437706,-27.267721]]],[[[-58.457404,-27.272953],[-58.4626,-27.271824],[-58.463321,-27.270848],[-58.45788,-27.2717],[-58.457404,-27.272953]]]]}},{"type":"Feature","properties":{"department":"San Luis del Palmar","officialName":"San Luis del Palmar","georefId":"18140","province":"Corrientes","source":"IGN"},"geometry":{"type":"Polygon","coordinates":[[[-58.343173,-27.407808],[-58.22031,-27.443373],[-58.128517,-27.403355],[-57.980827,-27.402863],[-57.875954,-27.43956],[-57.831104,-27.485617],[-57.892536,-27.563374],[-57.929155,-27.579721],[-57.954086,-27.625614],[-58.145527,-27.697081],[-58.304054,-27.795339],[-58.242813,-27.83758],[-58.16853,-27.829624],[-58.147911,-27.857052],[-58.163321,-27.90131],[-58.194675,-27.901176],[-58.293091,-27.954027],[-58.303917,-27.953382],[-58.325611,-27.900251],[-58.316555,-27.866201],[-58.329823,-27.864716],[-58.328262,-27.85288],[-58.396679,-27.858402],[-58.385864,-27.784874],[-58.46611,-27.780817],[-58.467472,-27.75647],[-58.500047,-27.758641],[-58.49754,-27.728188],[-58.547112,-27.721113],[-58.544106,-27.70446],[-58.601025,-27.718502],[-58.596397,-27.647038],[-58.605835,-27.630169],[-58.645374,-27.60347],[-58.668322,-27.612259],[-58.646171,-27.517385],[-58.582327,-27.516875],[-58.548492,-27.487389],[-58.51916,-27.491089],[-58.488645,-27.474461],[-58.480818,-27.449669],[-58.491065,-27.4299],[-58.455436,-27.416787],[-58.449345,-27.399303],[-58.413815,-27.408903],[-58.355465,-27.397865],[-58.343173,-27.407808]]]}},{"type":"Feature","properties":{"department":"San Martin","officialName":"San Martín","georefId":"18147","province":"Corrientes","source":"IGN"},"geometry":{"type":"Polygon","coordinates":[[[-56.787385,-28.260709],[-56.640598,-28.262726],[-56.638069,-28.292873],[-56.569328,-28.299522],[-56.545971,-28.334303],[-56.520302,-28.33902],[-56.52924,-28.359777],[-56.510071,-28.38826],[-56.519184,-28.410398],[-56.542347,-28.41696],[-56.541858,-28.440374],[-56.556503,-28.442547],[-56.596931,-28.492958],[-56.592945,-28.537596],[-56.624283,-28.537325],[-56.658547,-28.557956],[-56.652489,-28.567757],[-56.669819,-28.58424],[-56.658001,-28.604954],[-56.674931,-28.635485],[-56.639979,-28.665068],[-56.653808,-28.694075],[-56.671828,-28.690984],[-56.707554,-28.742702],[-56.686669,-28.753172],[-56.685624,-28.772099],[-56.703023,-28.775324],[-56.691157,-28.798643],[-56.704205,-28.821909],[-56.691551,-28.845263],[-56.682425,-28.840911],[-56.684616,-28.876825],[-56.662276,-28.895773],[-56.67205,-28.907932],[-56.654213,-28.940386],[-56.663511,-28.965767],[-56.639896,-28.968481],[-56.648918,-28.98345],[-56.638847,-29.004791],[-56.609379,-29.006401],[-56.610313,-29.045565],[-56.583488,-29.054876],[-56.580742,-29.067513],[-56.609421,-29.098969],[-56.578546,-29.116609],[-56.64541,-29.199299],[-56.649584,-29.272415],[-56.703944,-29.362244],[-56.767462,-29.382561],[-56.778856,-29.436448],[-56.838651,-29.498216],[-56.86916,-29.470119],[-56.868183,-29.44169],[-56.852661,-29.425674],[-56.863749,-29.393848],[-56.848579,-29.323858],[-56.861092,-29.301857],[-56.866684,-29.201643],[-56.949764,-29.20105],[-57.100868,-29.257418],[-57.134476,-29.244938],[-57.286385,-29.246315],[-57.427742,-29.227316],[-57.476669,-29.182554],[-57.515069,-29.167531],[-57.45814,-29.120584],[-57.430329,-29.06815],[-57.351365,-29.027643],[-57.271001,-28.957141],[-57.178683,-28.82659],[-57.164395,-28.631326],[-57.179896,-28.584839],[-57.169756,-28.572323],[-57.215617,-28.499369],[-56.880928,-28.235033],[-56.787385,-28.260709]]]}},{"type":"Feature","properties":{"department":"San Miguel","officialName":"San Miguel","georefId":"18154","province":"Corrientes","source":"IGN"},"geometry":{"type":"Polygon","coordinates":[[[-57.20741,-27.472863],[-57.120548,-27.493446],[-57.036472,-27.480595],[-56.974307,-27.495234],[-56.944241,-27.572044],[-57.096832,-27.665062],[-57.116707,-27.706238],[-57.179237,-27.754137],[-57.194695,-27.807371],[-57.254055,-27.866467],[-57.354622,-27.934608],[-57.412785,-28.069336],[-57.398335,-28.1483],[-57.442059,-28.269846],[-57.510433,-28.340254],[-57.589853,-28.37517],[-57.644291,-28.419729],[-57.658833,-28.410524],[-57.629345,-28.369122],[-57.680553,-28.319607],[-57.604725,-28.252985],[-57.6716,-28.163282],[-57.627571,-28.136196],[-57.777597,-27.971318],[-57.726868,-27.93218],[-57.593285,-27.766373],[-57.498581,-27.691605],[-57.422867,-27.653563],[-57.303886,-27.550707],[-57.228453,-27.511857],[-57.225275,-27.497106],[-57.254562,-27.473549],[-57.20741,-27.472863]]]}},{"type":"Feature","properties":{"department":"San Roque","officialName":"San Roque","georefId":"18161","province":"Corrientes","source":"IGN"},"geometry":{"type":"Polygon","coordinates":[[[-58.307365,-28.832933],[-58.342905,-28.866035],[-58.340234,-28.882304],[-58.377728,-28.892904],[-58.379673,-28.915546],[-58.394894,-28.913851],[-58.401985,-28.927547],[-58.453129,-28.922098],[-58.451664,-28.93054],[-58.462128,-28.916214],[-58.478992,-28.931416],[-58.502206,-28.924342],[-58.497762,-28.939195],[-58.532986,-28.965242],[-58.533955,-28.988816],[-58.560707,-28.985104],[-58.571682,-29.026613],[-58.582127,-29.022694],[-58.601368,-29.04624],[-58.70874,-28.951208],[-58.889828,-28.844698],[-58.98975,-28.825428],[-58.952117,-28.773113],[-58.957725,-28.763367],[-58.927681,-28.746883],[-58.922001,-28.731039],[-58.932549,-28.728976],[-58.856542,-28.639122],[-58.73615,-28.58844],[-58.600182,-28.45735],[-58.545208,-28.376575],[-58.51049,-28.36388],[-58.490482,-28.338943],[-58.460434,-28.336666],[-58.431859,-28.306078],[-58.311817,-28.451077],[-58.415382,-28.539846],[-58.499756,-28.590223],[-58.507153,-28.610226],[-58.490421,-28.646807],[-58.540123,-28.701162],[-58.547489,-28.729944],[-58.508568,-28.783726],[-58.460419,-28.774662],[-58.422886,-28.740574],[-58.307365,-28.832933]]]}},{"type":"Feature","properties":{"department":"Santo Tome","officialName":"Santo Tomé","georefId":"18168","province":"Corrientes","source":"IGN"},"geometry":{"type":"Polygon","coordinates":[[[-56.216808,-27.783921],[-56.152083,-27.798644],[-56.131672,-27.833906],[-56.106903,-27.827856],[-56.047343,-27.845423],[-55.984667,-27.906595],[-55.946418,-27.915344],[-55.914955,-27.89839],[-55.874653,-27.958235],[-55.888371,-28.022078],[-55.820744,-27.949938],[-55.809926,-27.954118],[-55.776405,-28.008676],[-55.749427,-28.0271],[-55.758025,-28.06081],[-55.716718,-28.061268],[-55.712579,-28.088184],[-55.676584,-28.10056],[-55.620259,-28.14575],[-55.629192,-28.173768],[-55.691622,-28.217213],[-55.782542,-28.253937],[-55.772689,-28.273936],[-55.732866,-28.285822],[-55.669942,-28.330763],[-55.696331,-28.42316],[-55.7175,-28.422158],[-55.732162,-28.384348],[-55.75745,-28.368588],[-55.878303,-28.361162],[-55.90303,-28.408104],[-55.882362,-28.477707],[-56.008646,-28.505999],[-56.025668,-28.535963],[-56.002271,-28.578489],[-56.007602,-28.604952],[-56.118573,-28.681681],[-56.185516,-28.770001],[-56.259155,-28.77832],[-56.297021,-28.802389],[-56.30629,-28.79283],[-56.290053,-28.779144],[-56.339039,-28.782621],[-56.381294,-28.764011],[-56.412693,-28.746025],[-56.415451,-28.700937],[-56.450665,-28.693317],[-56.365456,-28.619799],[-56.375935,-28.589375],[-56.369259,-28.522245],[-56.43005,-28.440952],[-56.544956,-28.432724],[-56.510162,-28.390114],[-56.52924,-28.359777],[-56.520302,-28.33902],[-56.545971,-28.334303],[-56.569328,-28.299522],[-56.638069,-28.292873],[-56.640598,-28.262726],[-56.799923,-28.260214],[-56.880928,-28.235033],[-56.831875,-28.176758],[-56.779537,-28.080662],[-56.663376,-27.952679],[-56.624626,-27.850466],[-56.467884,-27.939465],[-56.425632,-27.880533],[-56.341355,-27.935389],[-56.334953,-27.91063],[-56.313536,-27.894368],[-56.321867,-27.878542],[-56.276938,-27.882884],[-56.260559,-27.861804],[-56.266152,-27.828073],[-56.239689,-27.81897],[-56.244991,-27.798443],[-56.22932,-27.769571],[-56.216808,-27.783921]]]}},{"type":"Feature","properties":{"department":"Sauce","officialName":"Sauce","georefId":"18175","province":"Corrientes","source":"IGN"},"geometry":{"type":"Polygon","coordinates":[[[-58.696832,-29.629216],[-58.716511,-29.727587],[-58.682918,-29.772116],[-58.701255,-29.780829],[-58.752873,-29.858159],[-58.694119,-29.834726],[-58.637058,-29.846283],[-58.580536,-29.838394],[-58.537539,-29.881085],[-58.531378,-29.928824],[-58.506865,-29.963995],[-58.468754,-29.989717],[-58.445077,-30.097382],[-58.472617,-30.122943],[-58.513412,-30.119685],[-58.539478,-30.15237],[-58.630015,-30.176859],[-58.647139,-30.163194],[-58.681665,-30.163581],[-58.681676,-30.175745],[-58.721058,-30.186399],[-58.754841,-30.215877],[-58.803753,-30.210834],[-58.831025,-30.231296],[-58.902123,-30.248578],[-58.96458,-30.218458],[-59.008653,-30.218522],[-59.064251,-30.230818],[-59.081459,-30.249074],[-59.075324,-30.256976],[-59.107792,-30.27338],[-59.126222,-30.1824],[-59.069125,-30.165084],[-59.052423,-30.135588],[-59.069408,-30.128563],[-59.073513,-30.099573],[-59.025436,-29.851475],[-58.958199,-29.834415],[-58.954357,-29.81567],[-58.911861,-29.809671],[-58.862316,-29.760159],[-58.856789,-29.74214],[-58.878044,-29.738632],[-58.875225,-29.726542],[-58.696832,-29.629216]]]}}]}